{
  "type": "FeatureCollection",
  "features": [
    {
      "type": "Feature",
      "properties": {
        "norad_id": 43823,
        "name": "GEO-KOMPSAT-2A",
        "group": "weather",
        "lat": -0.030495361642250533,
        "lon": 32.87271069303054,
        "alt_km": 35785.97283022123,
        "timestamp": "2025-12-22T11:33:20.072044+00:00",
        "meta_object_name": "GEO-KOMPSAT-2A",
        "meta_object_id": "2018-100A",
        "meta_epoch": "2025-12-22T00:04:46.593120",
        "meta_mean_motion": 1.00270405,
        "meta_eccentricity": 3.89e-05,
        "meta_inclination": 0.0515,
        "meta_ra_of_asc_node": 130.0014,
        "meta_arg_of_pericenter": 332.6805,
        "meta_mean_anomaly": 117.594,
        "meta_ephemeris_type": 0,
        "meta_classification_type": "U",
        "meta_norad_cat_id": 43823,
        "meta_element_set_no": 999,
        "meta_rev_at_epoch": 2585,
        "meta_bstar": 0,
        "meta_mean_motion_dot": -3.22e-06,
        "meta_mean_motion_ddot": 0,
        "tle_line1": "1 43823U 18100A   25356.00331705 -.00000322  00000+0  00000+0 0  9996",
        "tle_line2": "2 43823   0.0515 130.0014 0000389 332.6805 117.5940  1.00270405 25855"
      },
      "geometry": {
        "type": "Point",
        "coordinates": [
          32.87271069303054,
          -0.030495361642250533
        ]
      }
    },
    {
      "type": "Feature",
      "properties": {
        "norad_id": 44387,
        "name": "METEOR-M2 2",
        "group": "weather",
        "lat": -74.54550783984672,
        "lon": 121.81545188815294,
        "alt_km": 818.8974523108063,
        "timestamp": "2025-12-22T11:33:20.072055+00:00",
        "meta_object_name": "METEOR-M2 2",
        "meta_object_id": "2019-038A",
        "meta_epoch": "2025-12-22T05:17:36.003840",
        "meta_mean_motion": 14.24295865,
        "meta_eccentricity": 0.0001673,
        "meta_inclination": 98.8974,
        "meta_ra_of_asc_node": 336.0653,
        "meta_arg_of_pericenter": 129.4677,
        "meta_mean_anomaly": 230.665,
        "meta_ephemeris_type": 0,
        "meta_classification_type": "U",
        "meta_norad_cat_id": 44387,
        "meta_element_set_no": 999,
        "meta_rev_at_epoch": 33610,
        "meta_bstar": 0.00017323,
        "meta_mean_motion_dot": 3.54e-06,
        "meta_mean_motion_ddot": 0,
        "tle_line1": "1 44387U 19038A   25356.22055560  .00000354  00000+0  17323-3 0  9993",
        "tle_line2": "2 44387  98.8974 336.0653 0001673 129.4677 230.6650 14.24295865336103"
      },
      "geometry": {
        "type": "Point",
        "coordinates": [
          121.81545188815294,
          -74.54550783984672
        ]
      }
    },
    {
      "type": "Feature",
      "properties": {
        "norad_id": 47719,
        "name": "ARKTIKA-M 1",
        "group": "weather",
        "lat": 25.943397674106855,
        "lon": -111.5052137416218,
        "alt_km": 13088.606753155524,
        "timestamp": "2025-12-22T11:33:20.072077+00:00",
        "meta_object_name": "ARKTIKA-M 1",
        "meta_object_id": "2021-016A",
        "meta_epoch": "2025-12-22T01:06:25.352064",
        "meta_mean_motion": 2.00630725,
        "meta_eccentricity": 0.7208936,
        "meta_inclination": 63.1758,
        "meta_ra_of_asc_node": 82.7274,
        "meta_arg_of_pericenter": 269.1606,
        "meta_mean_anomaly": 15.5459,
        "meta_ephemeris_type": 0,
        "meta_classification_type": "U",
        "meta_norad_cat_id": 47719,
        "meta_element_set_no": 999,
        "meta_rev_at_epoch": 3523,
        "meta_bstar": 0,
        "meta_mean_motion_dot": -8.3e-07,
        "meta_mean_motion_ddot": 0,
        "tle_line1": "1 47719U 21016A   25356.04612676 -.00000083  00000+0  00000+0 0  9991",
        "tle_line2": "2 47719  63.1758  82.7274 7208936 269.1606  15.5459  2.00630725 35232"
      },
      "geometry": {
        "type": "Point",
        "coordinates": [
          -111.5052137416218,
          25.943397674106855
        ]
      }
    },
    {
      "type": "Feature",
      "properties": {
        "norad_id": 49008,
        "name": "FENGYUN 3E",
        "group": "weather",
        "lat": 60.59241223575011,
        "lon": -18.96478720192191,
        "alt_km": 820.2747882386975,
        "timestamp": "2025-12-22T11:33:20.072089+00:00",
        "meta_object_name": "FENGYUN 3E",
        "meta_object_id": "2021-062A",
        "meta_epoch": "2025-12-22T04:30:01.882656",
        "meta_mean_motion": 14.19882014,
        "meta_eccentricity": 8.21e-05,
        "meta_inclination": 98.747,
        "meta_ra_of_asc_node": 356.5965,
        "meta_arg_of_pericenter": 201.2909,
        "meta_mean_anomaly": 158.8234,
        "meta_ephemeris_type": 0,
        "meta_classification_type": "U",
        "meta_norad_cat_id": 49008,
        "meta_element_set_no": 999,
        "meta_rev_at_epoch": 23146,
        "meta_bstar": 0.00011118,
        "meta_mean_motion_dot": 1.92e-06,
        "meta_mean_motion_ddot": 0,
        "tle_line1": "1 49008U 21062A   25356.18752179  .00000192  00000+0  11118-3 0  9999",
        "tle_line2": "2 49008  98.7470 356.5965 0000821 201.2909 158.8234 14.19882014231466"
      },
      "geometry": {
        "type": "Point",
        "coordinates": [
          -18.96478720192191,
          60.59241223575011
        ]
      }
    },
    {
      "type": "Feature",
      "properties": {
        "norad_id": 51850,
        "name": "GOES 18",
        "group": "weather",
        "lat": 0.004673343490263948,
        "lon": 127.61594608568906,
        "alt_km": 35787.5805030815,
        "timestamp": "2025-12-22T11:33:20.072100+00:00",
        "meta_object_name": "GOES 18",
        "meta_object_id": "2022-021A",
        "meta_epoch": "2025-12-22T01:46:38.731296",
        "meta_mean_motion": 1.00270544,
        "meta_eccentricity": 3.06e-05,
        "meta_inclination": 0.0059,
        "meta_ra_of_asc_node": 99.3613,
        "meta_arg_of_pericenter": 230.8678,
        "meta_mean_anomaly": 10.3207,
        "meta_ephemeris_type": 0,
        "meta_classification_type": "U",
        "meta_norad_cat_id": 51850,
        "meta_element_set_no": 999,
        "meta_rev_at_epoch": 481,
        "meta_bstar": 0,
        "meta_mean_motion_dot": 1.19e-06,
        "meta_mean_motion_ddot": 0,
        "tle_line1": "1 51850U 22021A   25356.07405939  .00000119  00000+0  00000+0 0  9993",
        "tle_line2": "2 51850   0.0059  99.3613 0000306 230.8678  10.3207  1.00270544  4818"
      },
      "geometry": {
        "type": "Point",
        "coordinates": [
          127.61594608568906,
          0.004673343490263948
        ]
      }
    },
    {
      "type": "Feature",
      "properties": {
        "norad_id": 54234,
        "name": "NOAA 21 (JPSS-2)",
        "group": "weather",
        "lat": 54.81847721226307,
        "lon": -79.94724732554182,
        "alt_km": 820.684661046912,
        "timestamp": "2025-12-22T11:33:20.072110+00:00",
        "meta_object_name": "NOAA 21 (JPSS-2)",
        "meta_object_id": "2022-150A",
        "meta_epoch": "2025-12-22T02:50:07.814400",
        "meta_mean_motion": 14.19526576,
        "meta_eccentricity": 0.0001803,
        "meta_inclination": 98.7475,
        "meta_ra_of_asc_node": 292.3098,
        "meta_arg_of_pericenter": 19.2621,
        "meta_mean_anomaly": 340.8623,
        "meta_ephemeris_type": 0,
        "meta_classification_type": "U",
        "meta_norad_cat_id": 54234,
        "meta_element_set_no": 999,
        "meta_rev_at_epoch": 16142,
        "meta_bstar": 4.9846e-05,
        "meta_mean_motion_dot": 6.1e-07,
        "meta_mean_motion_ddot": 0,
        "tle_line1": "1 54234U 22150A   25356.11814600  .00000061  00000+0  49846-4 0  9991",
        "tle_line2": "2 54234  98.7475 292.3098 0001803  19.2621 340.8623 14.19526576161422"
      },
      "geometry": {
        "type": "Point",
        "coordinates": [
          -79.94724732554182,
          54.81847721226307
        ]
      }
    },
    {
      "type": "Feature",
      "properties": {
        "norad_id": 54743,
        "name": "METEOSAT-12 (MTG-I1)",
        "group": "weather",
        "lat": -0.6225963410054969,
        "lon": -95.70446474648377,
        "alt_km": 35780.032929807785,
        "timestamp": "2025-12-22T11:33:20.072122+00:00",
        "meta_object_name": "METEOSAT-12 (MTG-I1)",
        "meta_object_id": "2022-170C",
        "meta_epoch": "2025-12-22T01:10:47.768736",
        "meta_mean_motion": 1.00270724,
        "meta_eccentricity": 0.0001513,
        "meta_inclination": 0.6961,
        "meta_ra_of_asc_node": 25.1478,
        "meta_arg_of_pericenter": 239.7839,
        "meta_mean_anomaly": 203.3139,
        "meta_ephemeris_type": 0,
        "meta_classification_type": "U",
        "meta_norad_cat_id": 54743,
        "meta_element_set_no": 999,
        "meta_rev_at_epoch": 1120,
        "meta_bstar": 0,
        "meta_mean_motion_dot": 1.4e-07,
        "meta_mean_motion_ddot": 0,
        "tle_line1": "1 54743U 22170C   25356.04916399  .00000014  00000+0  00000+0 0  9990",
        "tle_line2": "2 54743   0.6961  25.1478 0001513 239.7839 203.3139  1.00270724 11203"
      },
      "geometry": {
        "type": "Point",
        "coordinates": [
          -95.70446474648377,
          -0.6225963410054969
        ]
      }
    }
  ]
}